0 GLOBALSTAR M095
1 39077U 13005F   13283.47583233 -.00000078  00000-0  14560-3 0  2197
2 39077 051.9816 350.8952 0000125 035.3416 324.7459 12.62262547 31184
0 GLOBALSTAR M095
1 39077U 13005F   13285.69299118 -.00000070  00000-0  18947-3 0  2217
2 39077 051.9812 344.1424 0000169 015.4646 344.6225 12.62262564 31464
0 GLOBALSTAR M095
1 39077U 13005F   13287.11830758 -.00000072  00000-0  17903-3 0  2221
2 39077 051.9810 339.8011 0000203 007.6681 352.4188 12.62262679 31648
0 GLOBALSTAR M095
1 39077U 13005F   13288.14770275 -.00000079  00000-0  13850-3 0  2237
2 39077 051.9808 336.6657 0000234 002.2839 357.8028 12.62262826 31776
0 GLOBALSTAR M095
1 39077U 13005F   13289.41465044 -.00000085  00000-0  10533-3 0  2246
2 39077 051.9806 332.8068 0000279 358.9594 001.1272 12.62262937 31937
0 GLOBALSTAR M095
1 39077U 13005F   13290.44404544 -.00000092  00000-0  65112-4 0  2252
2 39077 051.9804 329.6713 0000272 006.7523 353.3347 12.62263007 32068
0 GLOBALSTAR M095
1 39077U 13005F   13291.47344029 -.00000091  00000-0  72215-4 0  2269
2 39077 051.9803 326.5358 0000298 006.3857 353.7013 12.62263068 32197
0 GLOBALSTAR M095
1 39077U 13005F   13292.58201937 -.00000097  00000-0  35440-4 0  2278
2 39077 051.9803 323.1592 0000341 005.2264 354.8606 12.62263036 32330
0 GLOBALSTAR M095
1 39077U 13005F   13293.61141412 -.00000092  00000-0  66026-4 0  2284
2 39077 051.9803 320.0238 0000378 005.2444 354.8426 12.62263034 32465
0 GLOBALSTAR M095
1 39077U 13005F   13295.03672997 -.00000082  00000-0  12137-3 0  2292
2 39077 051.9802 315.6825 0000437 005.7501 354.3370 12.62262966 32647
0 GLOBALSTAR M095
1 39077U 13005F   13296.14530899 -.00000077  00000-0  15186-3 0  2302
2 39077 051.9801 312.3059 0000477 006.9432 353.1441 12.62263000 32780
